start=new Date('2022-03-01T00:00:00.000Z').valueOf();
sats=[{"RA_OF_ASC_NODE":"46.7922","LAUNCH_DATE":"2020-01-29","INCLINATION":"53.0548","EPOCH":"2022-02-28T10:45:29.804832","SITE":"AFETR","MEAN_ANOMALY":"292.9989","ECCENTRICITY":"0.00016940","DECAY_DATE":null,"ELEMENT_SET_NO":"999","CLASSIFICATION_TYPE":"U","OBJECT_TYPE":"PAYLOAD","REV_AT_EPOCH":"11486","COUNTRY_CODE":"US","NORAD_CAT_ID":"45059","APOAPSIS":"548.385","TLE_LINE2":"2 45059  53.0548  46.7922 0001694  67.1178 292.9989 15.06400687114865","FILE":"3333642","RCS_SIZE":"LARGE","OBJECT_ID":"2020-006R","BSTAR":"0.00015921000000","TLE_LINE1":"1 45059U 20006R   22059.44826163  .00002091  00000-0  15921-3 0  9996","MEAN_ELEMENT_THEORY":"SGP4","EPHEMERIS_TYPE":"0","MEAN_MOTION_DOT":"0.00002091","MEAN_MOTION_DDOT":"0.0000000000000","OBJECT_NAME":"STARLINK-1165","SEMIMAJOR_AXIS":"6925.346","PERIOD":"95.592","GP_ID":"197359649","PERIAPSIS":"546.038","MEAN_MOTION":"15.06400687","CENTER_NAME":"EARTH","REF_FRAME":"TEME","TIME_SYSTEM":"UTC","ARG_OF_PERICENTER":"67.1178"},{"ELEMENT_SET_NO":"999","CLASSIFICATION_TYPE":"U","DECAY_DATE":null,"SITE":"AFETR","ECCENTRICITY":"0.00017420","MEAN_ANOMALY":"304.8053","EPOCH":"2022-02-28T10:40:11.445024","LAUNCH_DATE":"2020-01-29","RA_OF_ASC_NODE":"46.8080","INCLINATION":"53.0541","SEMIMAJOR_AXIS":"6925.332","PERIOD":"95.592","MEAN_MOTION_DOT":"0.00002183","MEAN_MOTION_DDOT":"0.0000000000000","OBJECT_NAME":"STARLINK-1166","REF_FRAME":"TEME","TIME_SYSTEM":"UTC","ARG_OF_PERICENTER":"55.3100","PERIAPSIS":"545.991","GP_ID":"197358911","CENTER_NAME":"EARTH","MEAN_MOTION":"15.06405291","BSTAR":"0.00016539000000","TLE_LINE1":"1 45060U 20006S   22059.44457691  .00002183  00000-0  16539-3 0  9992","EPHEMERIS_TYPE":"0","MEAN_ELEMENT_THEORY":"SGP4","OBJECT_ID":"2020-006S","RCS_SIZE":"LARGE","REV_AT_EPOCH":"11486","OBJECT_TYPE":"PAYLOAD","TLE_LINE2":"2 45060  53.0541  46.8080 0001742  55.3100 304.8053 15.06405291114865","FILE":"3333642","COUNTRY_CODE":"US","NORAD_CAT_ID":"45060","APOAPSIS":"548.404"},{"DECAY_DATE":null,"ELEMENT_SET_NO":"999","CLASSIFICATION_TYPE":"U","MEAN_ANOMALY":"298.4723","ECCENTRICITY":"0.00016650","SITE":"AFETR","EPOCH":"2022-02-28T21:59:34.927872","INCLINATION":"53.0562","RA_OF_ASC_NODE":"44.7019","LAUNCH_DATE":"2020-01-29","CENTER_NAME":"EARTH","GP_ID":"197408534","PERIAPSIS":"546.056","MEAN_MOTION":"15.06401514","TIME_SYSTEM":"UTC","ARG_OF_PERICENTER":"61.6434","REF_FRAME":"TEME","OBJECT_NAME":"STARLINK-1169","MEAN_MOTION_DDOT":"0.0000000000000","MEAN_MOTION_DOT":"0.00001010","PERIOD":"95.592","SEMIMAJOR_AXIS":"6925.344","MEAN_ELEMENT_THEORY":"SGP4","EPHEMERIS_TYPE":"0","TLE_LINE1":"1 45061U 20006T   22059.91637648  .00001010  00000-0  86673-4 0  9992","BSTAR":"0.00008667300000","RCS_SIZE":"LARGE","OBJECT_ID":"2020-006T","APOAPSIS":"548.362","NORAD_CAT_ID":"45061","COUNTRY_CODE":"US","FILE":"3334872","TLE_LINE2":"2 45061  53.0562  44.7019 0001665  61.6434 298.4723 15.06401514114936","OBJECT_TYPE":"PAYLOAD","REV_AT_EPOCH":"11493"},{"TIME_SYSTEM":"UTC","ARG_OF_PERICENTER":"66.6422","REF_FRAME":"TEME","GP_ID":"197408784","MEAN_MOTION":"15.06402589","PERIAPSIS":"545.945","CENTER_NAME":"EARTH","PERIOD":"95.592","SEMIMAJOR_AXIS":"6925.341","OBJECT_NAME":"STARLINK-1171","MEAN_MOTION_DDOT":"0.0000000000000","MEAN_MOTION_DOT":"0.00002127","EPHEMERIS_TYPE":"0","MEAN_ELEMENT_THEORY":"SGP4","TLE_LINE1":"1 45062U 20006U   22059.90163528  .00002127  00000-0  16167-3 0  9993","BSTAR":"0.00016167000000","OBJECT_ID":"2020-006U","RCS_SIZE":"LARGE","TLE_LINE2":"2 45062  53.0543  44.7477 0001820  66.6422 293.4758 15.06402589114935","FILE":"3334872","NORAD_CAT_ID":"45062","APOAPSIS":"548.466","COUNTRY_CODE":"US","REV_AT_EPOCH":"11493","OBJECT_TYPE":"PAYLOAD","CLASSIFICATION_TYPE":"U","ELEMENT_SET_NO":"999","DECAY_DATE":null,"ECCENTRICITY":"0.00018200","MEAN_ANOMALY":"293.4758","SITE":"AFETR","EPOCH":"2022-02-28T21:38:21.288192","INCLINATION":"53.0543","LAUNCH_DATE":"2020-01-29","RA_OF_ASC_NODE":"44.7477"},{"MEAN_ELEMENT_THEORY":"SGP4","EPHEMERIS_TYPE":"0","BSTAR":"0.00011534000000","TLE_LINE1":"1 45064U 20006W   22059.91453733  .00001437  00000-0  11534-3 0  9992","REF_FRAME":"TEME","TIME_SYSTEM":"UTC","ARG_OF_PERICENTER":"66.6090","GP_ID":"197409536","MEAN_MOTION":"15.06399214","PERIAPSIS":"545.992","CENTER_NAME":"EARTH","SEMIMAJOR_AXIS":"6925.351","PERIOD":"95.592","MEAN_MOTION_DOT":"0.00001437","MEAN_MOTION_DDOT":"0.0000000000000","OBJECT_NAME":"STARLINK-1133","TLE_LINE2":"2 45064  53.0566  24.6904 0001768  66.6090 293.5085 15.06399214115212","FILE":"3334872","COUNTRY_CODE":"US","NORAD_CAT_ID":"45064","APOAPSIS":"548.440","REV_AT_EPOCH":"11521","OBJECT_TYPE":"PAYLOAD","OBJECT_ID":"2020-006W","RCS_SIZE":"LARGE","ECCENTRICITY":"0.00017680","MEAN_ANOMALY":"293.5085","SITE":"AFETR","ELEMENT_SET_NO":"999","CLASSIFICATION_TYPE":"U","DECAY_DATE":null,"INCLINATION":"53.0566","LAUNCH_DATE":"2020-01-29","RA_OF_ASC_NODE":"24.6904","EPOCH":"2022-02-28T21:56:56.025312"},{"INCLINATION":"53.0554","LAUNCH_DATE":"2020-01-29","RA_OF_ASC_NODE":"27.3677","EPOCH":"2022-02-28T07:42:22.679712","ECCENTRICITY":"0.00016910","MEAN_ANOMALY":"293.1671","SITE":"AFETR","CLASSIFICATION_TYPE":"U","ELEMENT_SET_NO":"999","DECAY_DATE":null,"TLE_LINE2":"2 45065  53.0554  27.3677 0001691  66.9496 293.1671 15.06396221115127","FILE":"3333642","COUNTRY_CODE":"US","APOAPSIS":"548.396","NORAD_CAT_ID":"45065","REV_AT_EPOCH":"11512","OBJECT_TYPE":"PAYLOAD","OBJECT_ID":"2020-006X","RCS_SIZE":"LARGE","EPHEMERIS_TYPE":"0","MEAN_ELEMENT_THEORY":"SGP4","BSTAR":"0.00010929000000","TLE_LINE1":"1 45065U 20006X   22059.32109583  .00001347  00000-0  10929-3 0  9996","REF_FRAME":"TEME","ARG_OF_PERICENTER":"66.9496","TIME_SYSTEM":"UTC","GP_ID":"197358412","MEAN_MOTION":"15.06396221","PERIAPSIS":"546.054","CENTER_NAME":"EARTH","SEMIMAJOR_AXIS":"6925.360","PERIOD":"95.592","MEAN_MOTION_DOT":"0.00001347","OBJECT_NAME":"STARLINK-1139","MEAN_MOTION_DDOT":"0.0000000000000"},{"EPOCH":"2022-02-28T08:40:46.075296","LAUNCH_DATE":"2020-01-29","RA_OF_ASC_NODE":"27.1897","INCLINATION":"53.0557","ELEMENT_SET_NO":"999","CLASSIFICATION_TYPE":"U","DECAY_DATE":null,"SITE":"AFETR","ECCENTRICITY":"0.00017760","MEAN_ANOMALY":"298.1618","OBJECT_ID":"2020-006Y","RCS_SIZE":"LARGE","REV_AT_EPOCH":"11512","OBJECT_TYPE":"PAYLOAD","TLE_LINE2":"2 45066  53.0557  27.1897 0001776  61.9550 298.1618 15.06400956115120","FILE":"3333642","APOAPSIS":"548.441","NORAD_CAT_ID":"45066","COUNTRY_CODE":"US","PERIOD":"95.592","SEMIMAJOR_AXIS":"6925.346","OBJECT_NAME":"STARLINK-1145","MEAN_MOTION_DDOT":"0.0000000000000","MEAN_MOTION_DOT":"0.00002646","TIME_SYSTEM":"UTC","ARG_OF_PERICENTER":"61.9550","REF_FRAME":"TEME","PERIAPSIS":"545.981","GP_ID":"197358655","CENTER_NAME":"EARTH","MEAN_MOTION":"15.06400956","TLE_LINE1":"1 45066U 20006Y   22059.36164439  .00002646  00000-0  19649-3 0  9993","BSTAR":"0.00019649000000","EPHEMERIS_TYPE":"0","MEAN_ELEMENT_THEORY":"SGP4"},{"EPOCH":"2022-02-28T21:46:18.504768","INCLINATION":"53.0557","LAUNCH_DATE":"2020-01-29","RA_OF_ASC_NODE":"24.7161","ELEMENT_SET_NO":"999","CLASSIFICATION_TYPE":"U","DECAY_DATE":null,"ECCENTRICITY":"0.00016550","MEAN_ANOMALY":"292.9979","SITE":"AFETR","OBJECT_ID":"2020-006Z","RCS_SIZE":"LARGE","FILE":"3334872","TLE_LINE2":"2 45067  53.0557  24.7161 0001655  67.1184 292.9979 15.06406015115219","APOAPSIS":"548.341","NORAD_CAT_ID":"45067","COUNTRY_CODE":"US","REV_AT_EPOCH":"11521","OBJECT_TYPE":"PAYLOAD","TIME_SYSTEM":"UTC","ARG_OF_PERICENTER":"67.1184","REF_FRAME":"TEME","PERIAPSIS":"546.049","GP_ID":"197408285","MEAN_MOTION":"15.06406015","CENTER_NAME":"EARTH","PERIOD":"95.592","SEMIMAJOR_AXIS":"6925.330","OBJECT_NAME":"STARLINK-1150","MEAN_MOTION_DDOT":"0.0000000000000","MEAN_MOTION_DOT":"0.00002459","EPHEMERIS_TYPE":"0","MEAN_ELEMENT_THEORY":"SGP4","TLE_LINE1":"1 45067U 20006Z   22059.90715862  .00002459  00000-0  18392-3 0  9992","BSTAR":"0.00018392000000"},{"BSTAR":"0.00010404000000","TLE_LINE1":"1 45068U 20006AA  22059.61503610  .00001268  00000-0  10404-3 0  9990","EPHEMERIS_TYPE":"0","MEAN_ELEMENT_THEORY":"SGP4","MEAN_MOTION_DOT":"0.00001268","OBJECT_NAME":"STARLINK-1161","MEAN_MOTION_DDOT":"0.0000000000000","SEMIMAJOR_AXIS":"6925.373","PERIOD":"95.593","MEAN_MOTION":"15.06392084","GP_ID":"197409037","PERIAPSIS":"546.077","CENTER_NAME":"EARTH","REF_FRAME":"TEME","ARG_OF_PERICENTER":"71.1332","TIME_SYSTEM":"UTC","OBJECT_TYPE":"PAYLOAD","REV_AT_EPOCH":"11516","COUNTRY_CODE":"US","APOAPSIS":"548.399","NORAD_CAT_ID":"45068","TLE_LINE2":"2 45068  53.0557  25.8851 0001676  71.1332 288.9838 15.06392084115164","FILE":"3334872","RCS_SIZE":"LARGE","OBJECT_ID":"2020-006AA","SITE":"AFETR","MEAN_ANOMALY":"288.9838","ECCENTRICITY":"0.00016760","DECAY_DATE":null,"ELEMENT_SET_NO":"999","CLASSIFICATION_TYPE":"U","RA_OF_ASC_NODE":"25.8851","LAUNCH_DATE":"2020-01-29","INCLINATION":"53.0557","EPOCH":"2022-02-28T14:45:39.119040"},{"RA_OF_ASC_NODE":"24.8853","LAUNCH_DATE":"2020-01-29","INCLINATION":"53.0554","EPOCH":"2022-02-28T20:58:32.666880","SITE":"AFETR","MEAN_ANOMALY":"294.3617","ECCENTRICITY":"0.00018910","DECAY_DATE":null,"CLASSIFICATION_TYPE":"U","ELEMENT_SET_NO":"999","OBJECT_TYPE":"PAYLOAD","REV_AT_EPOCH":"11520","COUNTRY_CODE":"US","NORAD_CAT_ID":"45071","APOAPSIS":"548.506","TLE_LINE2":"2 45071  53.0554  24.8853 0001891  65.7570 294.3617 15.06405521115200","FILE":"3334872","RCS_SIZE":"LARGE","OBJECT_ID":"2020-006AD","BSTAR":"0.00019130000000","TLE_LINE1":"1 45071U 20006AD  22059.87398920  .00002569  00000-0  19130-3 0  9998","EPHEMERIS_TYPE":"0","MEAN_ELEMENT_THEORY":"SGP4","MEAN_MOTION_DOT":"0.00002569","OBJECT_NAME":"STARLINK-1167","MEAN_MOTION_DDOT":"0.0000000000000","SEMIMAJOR_AXIS":"6925.332","PERIOD":"95.592","GP_ID":"197409787","MEAN_MOTION":"15.06405521","PERIAPSIS":"545.887","CENTER_NAME":"EARTH","REF_FRAME":"TEME","ARG_OF_PERICENTER":"65.7570","TIME_SYSTEM":"UTC"}];
